NORAD_CAT_ID,OBJECT_NAME,OBJECT_TYPE,EPOCH,MEAN_MOTION,ECCENTRICITY,INCLINATION,RA_OF_ASC_NODE,ARG_OF_PERICENTER,MEAN_ANOMALY,BSTAR,MEAN_MOTION_DOT,MEAN_MOTION_DDOT,TLE_LINE0,TLE_LINE1,TLE_LINE2,SEMIMAJOR_AXIS,PERIOD,APOGEE,PERIGEE,DECAYED
37853,RAX-2,PAYLOAD,2021-11-02 22:12:34,15.06049102,0.0162554,101.7195,289.1343,40.5809,320.7389,0.00040699,7.878e-05,0.0,0 RAX-2,1 37853U 11061D   21306.92540159  .00007878  00000-0  40699-3 0  9993,2 37853 101.7195 289.1343 0162554  40.5809 320.7389 15.06049102546567,6926.424,95.61399999999999,660.8810000000002,435.69699999999995,0.0
37853,RAX-2,PAYLOAD,2021-11-03 10:57:54,15.06057326,0.0162507,101.7194,289.9396,39.0018,322.2783,0.00045018,8.733e-05,0.0,0 RAX-2,1 37853U 11061D   21307.45687571  .00008733  00000-0  45018-3 0  9993,2 37853 101.7194 289.9396 0162507  39.0018 322.2783 15.06057326546646,6926.399,95.61399999999999,660.823,435.705,0.0
37853,RAX-2,PAYLOAD,2021-11-03 18:56:13,15.06064111,0.0162473,101.7194,290.4429,38.0124,323.2423,0.00053783,0.00010469,0.0,0 RAX-2,1 37853U 11061D   21307.78904545  .00010469  00000-0  53783-3 0  9999,2 37853 101.7194 290.4429 0162473  38.0124 323.2423 15.06064111547170,6926.378000000002,95.613,660.778,435.708,0.0
37853,RAX-2,PAYLOAD,2021-11-04 10:52:51,15.06083039,0.0162409,101.7194,291.4495,36.0384,325.1649,0.00076381,0.0001495,0.0,0 RAX-2,1 37853U 11061D   21308.45337918  .00014950  00000-0  76381-3 0  9996,2 37853 101.7194 291.4495 0162409  36.0384 325.1649 15.06083039546797,6926.32,95.61200000000001,660.675,435.695,0.0
37853,RAX-2,PAYLOAD,2021-11-04 20:26:50,15.06080911,0.0162424,101.7195,292.0534,34.8503,326.3217,0.00051111,9.943e-05,0.0,0 RAX-2,1 37853U 11061D   21308.85197882  .00009943  00000-0  51111-3 0  9994,2 37853 101.7195 292.0534 0162424  34.8503 326.3217 15.06080911547336,6926.3269999999975,95.61200000000001,660.692,435.69199999999995,0.0
37853,RAX-2,PAYLOAD,2021-11-04 22:02:30,15.06082446,0.016242700000000002,101.7195,292.1541,34.6516,326.5152,0.00051558,0.00010032,0.0,0 RAX-2,1 37853U 11061D   21308.91841159  .00010032  00000-0  51558-3 0  9990,2 37853 101.7195 292.1541 0162427  34.6516 326.5152 15.06082446546862,6926.321999999999,95.61200000000001,660.689,435.685,0.0
37853,RAX-2,PAYLOAD,2021-11-05 09:12:09,15.06089046,0.0162416,101.7197,292.8587,33.2714,327.8583,0.00043547,8.447e-05,0.0,0 RAX-2,1 37853U 11061D   21309.38344007  .00008447  00000-0  43547-3 0  9998,2 37853 101.7197 292.8587 0162416  33.2714 327.8583 15.06089046546937,6926.302,95.61200000000001,660.6610000000003,435.673,0.0
37853,RAX-2,PAYLOAD,2021-11-05 21:57:27,15.06097587,0.0162398,101.7199,293.664,31.6863,329.4001,0.00038807,7.509999999999998e-05,0.0,0 RAX-2,1 37853U 11061D   21309.91489800  .00007510  00000-0  38807-3 0  9991,2 37853 101.7199 293.6640 0162398  31.6863 329.4001 15.06097587547016,6926.276,95.611,660.622,435.659,0.0
37853,RAX-2,PAYLOAD,2021-11-06 05:55:45,15.06102771,0.016238,101.7201,294.1674,30.7054,330.3537,0.00036317,7.018e-05,0.0,0 RAX-2,1 37853U 11061D   21310.24705749  .00007018  00000-0  36317-3 0  9999,2 37853 101.7201 294.1674 0162380  30.7054 330.3537 15.06102771547068,6926.26,95.611,660.5930000000002,435.656,0.0
37853,RAX-2,PAYLOAD,2021-11-06 12:18:24,15.06105921,0.0162385,101.7202,294.57,29.9145,331.1226,0.00033013,6.364e-05,0.0,0 RAX-2,1 37853U 11061D   21310.51278460  .00006364  00000-0  33013-3 0  9997,2 37853 101.7202 294.5700 0162385  29.9145 331.1226 15.06105921547108,6926.25,95.611,660.587,435.64300000000003,0.0
37853,RAX-2,PAYLOAD,2021-11-07 10:37:40,15.06116974,0.0162374,101.7207,295.9796,27.1621,333.79699999999997,0.00028384,5.45e-05,0.0,0 RAX-2,1 37853U 11061D   21311.44282447  .00005450  00000-0  28384-3 0  9990,2 37853 101.7207 295.9796 0162374  27.1621 333.7970 15.06116974547722,6926.2159999999985,95.61,660.545,435.61699999999996,0.0
37853,RAX-2,PAYLOAD,2021-11-07 12:13:19,15.06117296,0.0162373,101.7207,296.0802,26.965999999999998,333.9875,0.00026869,5.15e-05,0.0,0 RAX-2,1 37853U 11061D   21311.50925562  .00005150  00000-0  26869-3 0  9992,2 37853 101.7207 296.0802 0162373  26.9660 333.9875 15.06117296547253,6926.215,95.61,660.543,435.61699999999996,0.0
37853,RAX-2,PAYLOAD,2021-11-07 18:35:58,15.06120206,0.0162377,101.7209,296.483,26.1784,334.7524,0.00026787,5.134e-05,0.0,0 RAX-2,1 37853U 11061D   21311.77497994  .00005134  00000-0  26787-3 0  9995,2 37853 101.7209 296.4830 0162377  26.1784 334.7524 15.06120206547292,6926.206,95.61,660.5369999999998,435.606,0.0
37853,RAX-2,PAYLOAD,2021-11-08 05:45:35,15.06125143,0.0162372,101.7211,297.1878,24.8081,336.0828,0.00024669,4.715e-05,0.0,0 RAX-2,1 37853U 11061D   21312.23999606  .00004715  00000-0  24669-3 0  9995,2 37853 101.7211 297.1878 0162372  24.8081 336.0828 15.06125143547360,6926.191,95.61,660.518,435.594,0.0
37853,RAX-2,PAYLOAD,2021-11-08 16:55:12,15.06130216,0.0162373,101.7214,297.8928,23.4398,337.4109,0.00025536,4.887e-05,0.0,0 RAX-2,1 37853U 11061D   21312.70501081  .00004887  00000-0  25536-3 0  9997,2 37853 101.7214 297.8928 0162373  23.4398 337.4109 15.06130216547918,6926.1759999999995,95.609,660.503,435.57800000000003,0.0
37853,RAX-2,PAYLOAD,2021-11-09 16:50:06,15.06140255,0.0162357,101.7217,299.4032,20.506,340.2571,0.00024947,4.772e-05,0.0,0 RAX-2,1 37853U 11061D   21313.70146581  .00004772  00000-0  24947-3 0  9996,2 37853 101.7217 299.4032 0162357  20.5060 340.2571 15.06140255547583,6926.145,95.609,660.461,435.559,0.0
37853,RAX-2,PAYLOAD,2021-11-10 11:58:01,15.06149168,0.0162329,101.7218,300.6117,18.1601,342.5317,0.00027435,5.266e-05,0.0,0 RAX-2,1 37853U 11061D   21314.49862492  .00005266  00000-0  27435-3 0  9993,2 37853 101.7218 300.6117 0162329  18.1601 342.5317 15.06149168548188,6926.1169999999975,95.60799999999999,660.413,435.551,0.0
37853,RAX-2,PAYLOAD,2021-11-10 21:31:58,15.06151645,0.0162312,101.7219,301.216,16.9886,343.6672,0.00023913,4.568e-05,0.0,0 RAX-2,1 37853U 11061D   21314.89720312  .00004568  00000-0  23913-3 0  9992,2 37853 101.7219 301.2160 0162312  16.9886 343.6672 15.06151645547769,6926.11,95.60799999999999,660.3939999999999,435.556,0.0
37853,RAX-2,PAYLOAD,2021-11-11 13:28:33,15.06157899,0.0162278,101.7218,302.2231,15.0361,345.5594,0.00023675,4.521e-05,0.0,0 RAX-2,1 37853U 11061D   21315.56149749  .00004521  00000-0  23675-3 0  9990,2 37853 101.7218 302.2231 0162278  15.0361 345.5594 15.06157899548343,6926.0909999999985,95.60799999999999,660.3510000000001,435.56,0.0
37853,RAX-2,PAYLOAD,2021-11-11 21:26:50,15.0616082,0.0162271,101.7219,302.7265,14.0536,346.5113,0.0002316,4.419e-05,0.0,0 RAX-2,1 37853U 11061D   21315.89364364  .00004419  00000-0  23160-3 0  9993,2 37853 101.7219 302.7265 0162271  14.0536 346.5113 15.06160820547910,6926.0819999999985,95.60700000000001,660.337,435.556,0.0
37853,RAX-2,PAYLOAD,2021-11-12 13:23:25,15.06166553,0.0162228,101.7218,303.7337,12.0933,348.4102,0.00022026,4.194e-05,0.0,0 RAX-2,1 37853U 11061D   21316.55793391  .00004194  00000-0  22026-3 0  9993,2 37853 101.7218 303.7337 0162228  12.0933 348.4102 15.06166553548011,6926.064,95.60700000000001,660.289,435.569,0.0
37853,RAX-2,PAYLOAD,2021-11-12 21:21:42,15.06168567,0.016222999999999998,101.7218,304.2373,11.1047,349.3678,0.00019983,3.79e-05,0.0,0 RAX-2,1 37853U 11061D   21316.89007811  .00003790  00000-0  19983-3 0  9994,2 37853 101.7218 304.2373 0162230  11.1047 349.3678 15.06168567548549,6926.058000000001,95.60700000000001,660.284,435.56199999999995,0.0
37853,RAX-2,PAYLOAD,2021-11-13 13:18:17,15.06174257,0.0162194,101.7218,305.2444,9.1332,351.2769,0.00019997,3.792e-05,0.0,0 RAX-2,1 37853U 11061D   21317.55436474  .00003792  00000-0  19997-3 0  9996,2 37853 101.7218 305.2444 0162194   9.1332 351.2769 15.06174257548166,6926.041,95.60600000000001,660.242,435.569,0.0
37853,RAX-2,PAYLOAD,2021-11-13 22:52:13,15.0617617,0.0162184,101.7217,305.8487,7.9468,352.4257,0.00017435,3.285e-05,0.0,0 RAX-2,1 37853U 11061D   21317.95293580  .00003285  00000-0  17435-3 0  9991,2 37853 101.7217 305.8487 0162184   7.9468 352.4257 15.06176170548221,6926.035,95.60600000000001,660.2289999999998,435.57,0.0
37853,RAX-2,PAYLOAD,2021-11-14 10:01:49,15.06180343,0.0162155,101.7216,306.5537,6.5645,353.7639,0.0001839,3.474e-05,0.0,0 RAX-2,1 37853U 11061D   21318.41793415  .00003474  00000-0  18390-3 0  9996,2 37853 101.7216 306.5537 0162155   6.5645 353.7639 15.06180343548296,6926.022,95.60600000000001,660.196,435.57800000000003,0.0
37853,RAX-2,PAYLOAD,2021-11-14 22:47:04,15.06183504,0.016214199999999998,101.7214,307.3594,4.9801,355.2978,0.00016756,3.15e-05,0.0,0 RAX-2,1 37853U 11061D   21318.94935965  .00003150  00000-0  16756-3 0  9997,2 37853 101.7214 307.3594 0162142   4.9801 355.2978 15.06183504548372,6926.012,95.60600000000001,660.177,435.577,0.0
37853,RAX-2,PAYLOAD,2021-11-15 01:58:23,15.06184267,0.016214,101.7213,307.5608,4.5856,355.6797,0.00016368,3.073e-05,0.0,0 RAX-2,1 37853U 11061D   21319.08221586  .00003073  00000-0  16368-3 0  9993,2 37853 101.7213 307.5608 0162140   4.5856 355.6797 15.06184267548878,6926.01,95.60600000000001,660.173,435.577,0.0
37853,RAX-2,PAYLOAD,2021-11-15 09:56:40,15.06186397,0.016212999999999998,101.7213,308.0643,3.5958,356.6379,0.00016183,3.037e-05,0.0,0 RAX-2,1 37853U 11061D   21319.41435626  .00003037  00000-0  16183-3 0  9997,2 37853 101.7213 308.0643 0162130   3.5958 356.6379 15.06186397548440,6926.003000000002,95.60600000000001,660.16,435.577,0.0
37853,RAX-2,PAYLOAD,2021-11-15 22:41:55,15.06190883,0.0162114,101.7211,308.8699,2.0079,358.1749,0.00017863,3.37e-05,0.0,0 RAX-2,1 37853U 11061D   21319.94577924  .00003370  00000-0  17863-3 0  9999,2 37853 101.7211 308.8699 0162114   2.0079 358.1749 15.06190883548529,6925.99,95.605,660.135,435.575,0.0
37853,RAX-2,PAYLOAD,2021-11-16 09:51:30,15.06196551,0.0162096,101.721,309.5748,0.6194,359.519,0.00022066,4.203e-05,0.0,0 RAX-2,1 37853U 11061D   21320.41077272  .00004203  00000-0  22066-3 0  9991,2 37853 101.7210 309.5748 0162096   0.6194 359.5190 15.06196551549076,6925.972,95.605,660.1039999999998,435.57,0.0
